{"type": "FeatureCollection", "features": [ {"type": "Feature", "properties": {"norad_id": 66494, "name": "STARLINK-35689", "group": "last-30-days", "lat": -20.121556711264653, "lon": -43.9663017079774, "alt_km": 445.50796042862294, "timestamp": "2025-12-14T20:40:30.514144+00:00", "meta": {"OBJECT_NAME": "STARLINK-35689", "OBJECT_ID": "2025-263K", "EPOCH": "2025-12-14T06:00:02.999808", "MEAN_MOTION": 15.40627659, "ECCENTRICITY": 0.00012094, "INCLINATION": 43, "RA_OF_ASC_NODE": 116.4061, "ARG_OF_PERICENTER": 265.5904, "MEAN_ANOMALY": 149.3616, "EPHEMERIS_TYPE": 0, "CLASSIFICATION_TYPE": "U", "NORAD_CAT_ID": 66494, "ELEMENT_SET_NO": 999, "REV_AT_EPOCH": 587, "BSTAR": 0.0019905482, "MEAN_MOTION_DOT": 0.00083561, "MEAN_MOTION_DDOT": 0}, "tle": {"line1": "1 66494U 25263K   25348.25003472  .00083561  00000+0  19905-2 0  9990", "line2": "2 66494  43.0000 116.4061 0001209 265.5904 149.3616 15.40627659  5875"}}, "geometry": {"type": "Point", "coordinates": [-43.9663017079774, -20.121556711264653]}}, {"type": "Feature", "properties": {"norad_id": 66495, "name": "STARLINK-35832", "group": "last-30-days", "lat": -33.95764771428273, "lon": -20.90198140340077, "alt_km": 448.1007931188733, "timestamp": "2025-12-14T20:40:30.514154+00:00", "meta": {"OBJECT_NAME": "STARLINK-35832", "OBJECT_ID": "2025-263L", "EPOCH": "2025-12-14T06:00:02.999808", "MEAN_MOTION": 15.42952403, "ECCENTRICITY": 0.00012989, "INCLINATION": 43.0001, "RA_OF_ASC_NODE": 116.3501, "ARG_OF_PERICENTER": 282.0636, "MEAN_ANOMALY": 155.851, "EPHEMERIS_TYPE": 0, "CLASSIFICATION_TYPE": "U", "NORAD_CAT_ID": 66495, "ELEMENT_SET_NO": 999, "REV_AT_EPOCH": 587, "BSTAR": -0.055165288, "MEAN_MOTION_DOT": -0.02228472, "MEAN_MOTION_DDOT": 0}, "tle": {"line1": "1 66495U 25263L   25348.25003472 -.02228472  00000+0 -55165-1 0  9994", "line2": "2 66495  43.0001 116.3501 0001298 282.0636 155.8510 15.42952403  5874"}}, "geometry": {"type": "Point", "coordinates": [-20.90198140340077, -33.95764771428273]}}, {"type": "Feature", "properties": {"norad_id": 66496, "name": "STARLINK-35909", "group": "last-30-days", "lat": -42.011848568816525, "lon": 37.52903047735661, "alt_km": 417.45083812044686, "timestamp": "2025-12-14T20:40:30.514238+00:00", "meta": {"OBJECT_NAME": "STARLINK-35909", "OBJECT_ID": "2025-263M", "EPOCH": "2025-12-14T08:38:52.665792", "MEAN_MOTION": 15.50625107, "ECCENTRICITY": 7.835e-05, "INCLINATION": 42.9974, "RA_OF_ASC_NODE": 115.6442, "ARG_OF_PERICENTER": 305.8044, "MEAN_ANOMALY": 54.2743, "EPHEMERIS_TYPE": 0, "CLASSIFICATION_TYPE": "U", "NORAD_CAT_ID": 66496, "ELEMENT_SET_NO": 999, "REV_AT_EPOCH": 581, "BSTAR": 0.0018044814, "MEAN_MOTION_DOT": 0.00107155, "MEAN_MOTION_DDOT": 0}, "tle": {"line1": "1 66496U 25263M   25348.36033178  .00107155  00000+0  18045-2 0  9990", "line2": "2 66496  42.9974 115.6442 0000783 305.8044  54.2743 15.50625107  5814"}}, "geometry": {"type": "Point", "coordinates": [37.52903047735661, -42.011848568816525]}}, {"type": "Feature", "properties": {"norad_id": 66497, "name": "STARLINK-35899", "group": "last-30-days", "lat": -41.64167691662375, "lon": 40.11389574996558, "alt_km": 417.10439053040955, "timestamp": "2025-12-14T20:40:30.514278+00:00", "meta": {"OBJECT_NAME": "STARLINK-35899", "OBJECT_ID": "2025-263N", "EPOCH": "2025-12-13T20:16:18.832224", "MEAN_MOTION": 15.50551506, "ECCENTRICITY": 0.00012877, "INCLINATION": 42.9995, "RA_OF_ASC_NODE": 118.6534, "ARG_OF_PERICENTER": 270.1228, "MEAN_ANOMALY": 89.9484, "EPHEMERIS_TYPE": 0, "CLASSIFICATION_TYPE": "U", "NORAD_CAT_ID": 66497, "ELEMENT_SET_NO": 999, "REV_AT_EPOCH": 573, "BSTAR": 0.0013367357, "MEAN_MOTION_DOT": 0.00078794, "MEAN_MOTION_DDOT": 0}, "tle": {"line1": "1 66497U 25263N   25347.84466241  .00078794  00000+0  13367-2 0  9992", "line2": "2 66497  42.9995 118.6534 0001287 270.1228  89.9484 15.50551506  5730"}}, "geometry": {"type": "Point", "coordinates": [40.11389574996558, -41.64167691662375]}}, {"type": "Feature", "properties": {"norad_id": 66498, "name": "STARLINK-35907", "group": "last-30-days", "lat": 34.78053157579998, "lon": -115.09442406577845, "alt_km": 439.20672266552265, "timestamp": "2025-12-14T20:40:30.514289+00:00", "meta": {"OBJECT_NAME": "STARLINK-35907", "OBJECT_ID": "2025-263P", "EPOCH": "2025-12-14T06:00:02.999808", "MEAN_MOTION": 15.40651349, "ECCENTRICITY": 0.00016433, "INCLINATION": 42.9997, "RA_OF_ASC_NODE": 116.6158, "ARG_OF_PERICENTER": 265.1278, "MEAN_ANOMALY": 62.6781, "EPHEMERIS_TYPE": 0, "CLASSIFICATION_TYPE": "U", "NORAD_CAT_ID": 66498, "ELEMENT_SET_NO": 999, "REV_AT_EPOCH": 587, "BSTAR": 0.0023843871, "MEAN_MOTION_DOT": 0.00100457, "MEAN_MOTION_DDOT": 0}, "tle": {"line1": "1 66498U 25263P   25348.25003472  .00100457  00000+0  23844-2 0  9995", "line2": "2 66498  42.9997 116.6158 0001643 265.1278  62.6781 15.40651349  5876"}}, "geometry": {"type": "Point", "coordinates": [-115.09442406577845, 34.78053157579998]}}, {"type": "Feature", "properties": {"norad_id": 66499, "name": "STARLINK-35816", "group": "last-30-days", "lat": 13.117153723525414, "lon": -81.48059662305572, "alt_km": 442.2325193478255, "timestamp": "2025-12-14T20:40:30.514300+00:00", "meta": {"OBJECT_NAME": "STARLINK-35816", "OBJECT_ID": "2025-263Q", "EPOCH": "2025-12-14T06:00:02.999808", "MEAN_MOTION": 15.4066701, "ECCENTRICITY": 0.00013525, "INCLINATION": 42.9996, "RA_OF_ASC_NODE": 116.5253, "ARG_OF_PERICENTER": 279.9506, "MEAN_ANOMALY": 85.1556, "EPHEMERIS_TYPE": 0, "CLASSIFICATION_TYPE": "U", "NORAD_CAT_ID": 66499, "ELEMENT_SET_NO": 999, "REV_AT_EPOCH": 587, "BSTAR": 0.0021294234, "MEAN_MOTION_DOT": 0.000896, "MEAN_MOTION_DDOT": 0}, "tle": {"line1": "1 66499U 25263Q   25348.25003472  .00089600  00000+0  21294-2 0  9999", "line2": "2 66499  42.9996 116.5253 0001352 279.9506  85.1556 15.40667010  5877"}}, "geometry": {"type": "Point", "coordinates": [-81.48059662305572, 13.117153723525414]}}, {"type": "Feature", "properties": {"norad_id": 66500, "name": "STARLINK-35894", "group": "last-30-days", "lat": 40.09382858699677, "lon": 177.83809749578342, "alt_km": 461.50641209862533, "timestamp": "2025-12-14T20:40:30.514311+00:00", "meta": {"OBJECT_NAME": "STARLINK-35894", "OBJECT_ID": "2025-263R", "EPOCH": "2025-12-14T06:00:02.999808", "MEAN_MOTION": 15.35295981, "ECCENTRICITY": 0.00012569, "INCLINATION": 42.9998, "RA_OF_ASC_NODE": 116.7101, "ARG_OF_PERICENTER": 260.7062, "MEAN_ANOMALY": 29.3264, "EPHEMERIS_TYPE": 0, "CLASSIFICATION_TYPE": "U", "NORAD_CAT_ID": 66500, "ELEMENT_SET_NO": 999, "REV_AT_EPOCH": 587, "BSTAR": -0.055658732, "MEAN_MOTION_DOT": -0.01758904, "MEAN_MOTION_DDOT": 0}, "tle": {"line1": "1 66500U 25263R   25348.25003472 -.01758904  00000+0 -55659-1 0  9996", "line2": "2 66500  42.9998 116.7101 0001256 260.7062  29.3264 15.35295981  5878"}}, "geometry": {"type": "Point", "coordinates": [177.83809749578342, 40.09382858699677]}}, {"type": "Feature", "properties": {"norad_id": 66501, "name": "STARLINK-35897", "group": "last-30-days", "lat": -3.7045973484429005, "lon": -63.07484128969538, "alt_km": 444.0531126168662, "timestamp": "2025-12-14T20:40:30.514322+00:00", "meta": {"OBJECT_NAME": "STARLINK-35897", "OBJECT_ID": "2025-263S", "EPOCH": "2025-12-14T06:00:02.999808", "MEAN_MOTION": 15.40655686, "ECCENTRICITY": 0.00015359, "INCLINATION": 42.9999, "RA_OF_ASC_NODE": 116.4652, "ARG_OF_PERICENTER": 269.524, "MEAN_ANOMALY": 120.4834, "EPHEMERIS_TYPE": 0, "CLASSIFICATION_TYPE": "U", "NORAD_CAT_ID": 66501, "ELEMENT_SET_NO": 999, "REV_AT_EPOCH": 587, "BSTAR": 0.002203105, "MEAN_MOTION_DOT": 0.00092715, "MEAN_MOTION_DDOT": 0}, "tle": {"line1": "1 66501U 25263S   25348.25003472  .00092715  00000+0  22031-2 0  9994", "line2": "2 66501  42.9999 116.4652 0001535 269.5240 120.4834 15.40655686  5877"}}, "geometry": {"type": "Point", "coordinates": [-63.07484128969538, -3.7045973484429005]}}, {"type": "Feature", "properties": {"norad_id": 66502, "name": "STARLINK-35922", "group": "last-30-days", "lat": -37.616385003349485, "lon": 56.88765786402811, "alt_km": 416.6109800084141, "timestamp": "2025-12-14T20:40:30.514332+00:00", "meta": {"OBJECT_NAME": "STARLINK-35922", "OBJECT_ID": "2025-263T", "EPOCH": "2025-12-13T18:40:05.847744", "MEAN_MOTION": 15.50532408, "ECCENTRICITY": 0.00014149, "INCLINATION": 43.0006, "RA_OF_ASC_NODE": 119.0096, "ARG_OF_PERICENTER": 287.71, "MEAN_ANOMALY": 72.3606, "EPHEMERIS_TYPE": 0, "CLASSIFICATION_TYPE": "U", "NORAD_CAT_ID": 66502, "ELEMENT_SET_NO": 999, "REV_AT_EPOCH": 572, "BSTAR": 0.0020202122, "MEAN_MOTION_DOT": 0.00119805, "MEAN_MOTION_DDOT": 0}, "tle": {"line1": "1 66502U 25263T   25347.77784546  .00119805  00000+0  20202-2 0  9997", "line2": "2 66502  43.0006 119.0096 0001414 287.7100  72.3606 15.50532408  5726"}}, "geometry": {"type": "Point", "coordinates": [56.88765786402811, -37.616385003349485]}}, {"type": "Feature", "properties": {"norad_id": 66503, "name": "STARLINK-35917", "group": "last-30-days", "lat": -27.562646400001444, "lon": -33.08597884431287, "alt_km": 445.6446821840291, "timestamp": "2025-12-14T20:40:30.514343+00:00", "meta": {"OBJECT_NAME": "STARLINK-35917", "OBJECT_ID": "2025-263U", "EPOCH": "2025-12-14T06:00:02.999808", "MEAN_MOTION": 15.40638084, "ECCENTRICITY": 0.00017489, "INCLINATION": 42.9999, "RA_OF_ASC_NODE": 116.3735, "ARG_OF_PERICENTER": 269.1088, "MEAN_ANOMALY": 158.2452, "EPHEMERIS_TYPE": 0, "CLASSIFICATION_TYPE": "U", "NORAD_CAT_ID": 66503, "ELEMENT_SET_NO": 999, "REV_AT_EPOCH": 587, "BSTAR": 0.002492067, "MEAN_MOTION_DOT": 0.00105025, "MEAN_MOTION_DDOT": 0}, "tle": {"line1": "1 66503U 25263U   25348.25003472  .00105025  00000+0  24921-2 0  9995", "line2": "2 66503  42.9999 116.3735 0001748 269.1088 158.2452 15.40638084  5870"}}, "geometry": {"type": "Point", "coordinates": [-33.08597884431287, -27.562646400001444]}}]}